IRIDIUM 116             
1 43072U 17083C   25026.90485197 -.00000016  00000+0 -12758-4 0  9998
2 43072  86.4018 173.6121 0002147  92.6270 267.5172 14.34217661371608
IRIDIUM 130             
1 43073U 17083D   25026.94290775  .00000112  00000+0  32863-4 0  9993
2 43073  86.4024 173.8217 0002170  97.5280 262.6162 14.34217729371559
IRIDIUM 151             
1 43074U 17083E   25026.91753618  .00000541  00000+0  18616-3 0  9996
2 43074  86.4017 173.6531 0002071  89.9487 270.1946 14.34218404371570
IRIDIUM 134             
1 43075U 17083F   25026.95559905  .00000271  00000+0  89685-4 0  9999
2 43075  86.4018 173.6387 0002225  95.5251 264.6199 14.34207823371542
IRIDIUM 137             
1 43076U 17083G   25026.89850922  .00000665  00000+0  23035-3 0  9999
2 43076  86.4022 173.7441 0002389  84.9348 275.2121 14.34217287371605
IRIDIUM 141             
1 43077U 17083H   25026.89216592 -.00000132  00000+0 -54301-4 0  9991
2 43077  86.4020 173.6069 0001566  99.5502 260.5871 14.34216797371603
IRIDIUM 153             
1 43078U 17083J   25026.84434150  .00000622  00000+0  21515-3 0  9991
2 43078  86.4015 142.1544 0001439 107.2413 252.8941 14.34220156372702
IRIDIUM 131             
1 43079U 17083K   25026.87947894  .00000142  00000+0  43624-4 0  9992
2 43079  86.4022 173.7641 0001810  91.6567 268.4836 14.34215311371531
